{
  "type": "FeatureCollection",
  "features": [
    {
      "type": "Feature",
      "properties": {
        "norad_id": 33412,
        "name": "COSMO-SKYMED 3",
        "group": "resource",
        "lat": 5.675853051320818,
        "lon": 11.861467928957941,
        "alt_km": 542.7624470688233,
        "timestamp": "2025-12-06T18:50:09.827506+00:00",
        "meta_object_name": "COSMO-SKYMED 3",
        "meta_object_id": "2008-054A",
        "meta_epoch": "2025-12-06T06:53:47.570496",
        "meta_mean_motion": 15.05259743,
        "meta_eccentricity": 0.00156683,
        "meta_inclination": 97.8456,
        "meta_ra_of_asc_node": 190.5707,
        "meta_arg_of_pericenter": 195.8021,
        "meta_mean_anomaly": 164.2718,
        "meta_ephemeris_type": 0,
        "meta_classification_type": "U",
        "meta_norad_cat_id": 33412,
        "meta_element_set_no": 999,
        "meta_rev_at_epoch": 92790,
        "meta_bstar": 0.00058708062,
        "meta_mean_motion_dot": 8.351e-05,
        "meta_mean_motion_ddot": 0,
        "tle_line1": "1 33412U 08054A   25340.28735614  .00008351  00000+0  58708-3 0  9997",
        "tle_line2": "2 33412  97.8456 190.5707 0015668 195.8021 164.2718 15.05259743927902"
      },
      "geometry": {
        "type": "Point",
        "coordinates": [
          11.861467928957941,
          5.675853051320818
        ]
      }
    },
    {
      "type": "Feature",
      "properties": {
        "norad_id": 33446,
        "name": "YAOGAN-4",
        "group": "resource",
        "lat": -77.26706612001556,
        "lon": -51.041470169038504,
        "alt_km": 623.8549904703596,
        "timestamp": "2025-12-06T18:50:09.827517+00:00",
        "meta_object_name": "YAOGAN-4",
        "meta_object_id": "2008-061A",
        "meta_epoch": "2025-12-06T06:14:16.558368",
        "meta_mean_motion": 14.82651246,
        "meta_eccentricity": 0.00141606,
        "meta_inclination": 97.9175,
        "meta_ra_of_asc_node": 270.423,
        "meta_arg_of_pericenter": 345.1979,
        "meta_mean_anomaly": 14.8818,
        "meta_ephemeris_type": 0,
        "meta_classification_type": "U",
        "meta_norad_cat_id": 33446,
        "meta_element_set_no": 999,
        "meta_rev_at_epoch": 91707,
        "meta_bstar": 0.00037016546,
        "meta_mean_motion_dot": 2.935e-05,
        "meta_mean_motion_ddot": 0,
        "tle_line1": "1 33446U 08061A   25340.25991387  .00002935  00000+0  37017-3 0  9992",
        "tle_line2": "2 33446  97.9175 270.4230 0014160 345.1979  14.8818 14.82651246917071"
      },
      "geometry": {
        "type": "Point",
        "coordinates": [
          -51.041470169038504,
          -77.26706612001556
        ]
      }
    },
    {
      "type": "Feature",
      "properties": {
        "norad_id": 33492,
        "name": "GOSAT (IBUKI)",
        "group": "resource",
        "lat": -63.016395371931615,
        "lon": 105.66543723110449,
        "alt_km": 676.6628352914795,
        "timestamp": "2025-12-06T18:50:09.827528+00:00",
        "meta_object_name": "GOSAT (IBUKI)",
        "meta_object_id": "2009-002A",
        "meta_epoch": "2025-12-06T04:24:03.029760",
        "meta_mean_motion": 14.67551919,
        "meta_eccentricity": 9.667e-05,
        "meta_inclination": 98.077,
        "meta_ra_of_asc_node": 88.8779,
        "meta_arg_of_pericenter": 86.8092,
        "meta_mean_anomaly": 273.3224,
        "meta_ephemeris_type": 0,
        "meta_classification_type": "U",
        "meta_norad_cat_id": 33492,
        "meta_element_set_no": 999,
        "meta_rev_at_epoch": 90315,
        "meta_bstar": 0.0003056437,
        "meta_mean_motion_dot": 1.686e-05,
        "meta_mean_motion_ddot": 0,
        "tle_line1": "1 33492U 09002A   25340.18336840  .00001686  00000+0  30564-3 0  9990",
        "tle_line2": "2 33492  98.0770  88.8779 0000966  86.8092 273.3224 14.67551919903154"
      },
      "geometry": {
        "type": "Point",
        "coordinates": [
          105.66543723110449,
          -63.016395371931615
        ]
      }
    },
    {
      "type": "Feature",
      "properties": {
        "norad_id": 35681,
        "name": "DEIMOS-1",
        "group": "resource",
        "lat": -35.16345213353686,
        "lon": -43.81464946794601,
        "alt_km": 652.7236546908671,
        "timestamp": "2025-12-06T18:50:09.827539+00:00",
        "meta_object_name": "DEIMOS-1",
        "meta_object_id": "2009-041A",
        "meta_epoch": "2025-12-06T04:50:13.582176",
        "meta_mean_motion": 14.74936951,
        "meta_eccentricity": 0.00026894,
        "meta_inclination": 97.7153,
        "meta_ra_of_asc_node": 141.1097,
        "meta_arg_of_pericenter": 92.2308,
        "meta_mean_anomaly": 267.921,
        "meta_ephemeris_type": 0,
        "meta_classification_type": "U",
        "meta_norad_cat_id": 35681,
        "meta_element_set_no": 999,
        "meta_rev_at_epoch": 87843,
        "meta_bstar": 0.00019979231,
        "meta_mean_motion_dot": 1.295e-05,
        "meta_mean_motion_ddot": 0,
        "tle_line1": "1 35681U 09041A   25340.20154609  .00001295  00000+0  19979-3 0  9992",
        "tle_line2": "2 35681  97.7153 141.1097 0002689  92.2308 267.9210 14.74936951878435"
      },
      "geometry": {
        "type": "Point",
        "coordinates": [
          -43.81464946794601,
          -35.16345213353686
        ]
      }
    },
    {
      "type": "Feature",
      "properties": {
        "norad_id": 35682,
        "name": "DUBAISAT-1",
        "group": "resource",
        "lat": 21.942990979397543,
        "lon": -65.20814898183443,
        "alt_km": 653.2355061242397,
        "timestamp": "2025-12-06T18:50:09.827550+00:00",
        "meta_object_name": "DUBAISAT-1",
        "meta_object_id": "2009-041B",
        "meta_epoch": "2025-12-06T03:27:56.647296",
        "meta_mean_motion": 14.74574301,
        "meta_eccentricity": 0.00099218,
        "meta_inclination": 97.9789,
        "meta_ra_of_asc_node": 110.9218,
        "meta_arg_of_pericenter": 337.3003,
        "meta_mean_anomaly": 22.7765,
        "meta_ephemeris_type": 0,
        "meta_classification_type": "U",
        "meta_norad_cat_id": 35682,
        "meta_element_set_no": 999,
        "meta_rev_at_epoch": 87664,
        "meta_bstar": 0.00039842864,
        "meta_mean_motion_dot": 2.605e-05,
        "meta_mean_motion_ddot": 0,
        "tle_line1": "1 35682U 09041B   25340.14440564  .00002605  00000+0  39843-3 0  9992",
        "tle_line2": "2 35682  97.9789 110.9218 0009921 337.3003  22.7765 14.74574301876643"
      },
      "geometry": {
        "type": "Point",
        "coordinates": [
          -65.20814898183443,
          21.942990979397543
        ]
      }
    },
    {
      "type": "Feature",
      "properties": {
        "norad_id": 35931,
        "name": "OCEANSAT-2",
        "group": "resource",
        "lat": 39.171880511641874,
        "lon": 168.7553654969733,
        "alt_km": 889.9241863161151,
        "timestamp": "2025-12-06T18:50:09.827561+00:00",
        "meta_object_name": "OCEANSAT-2",
        "meta_object_id": "2009-051A",
        "meta_epoch": "2025-12-06T06:09:35.703072",
        "meta_mean_motion": 13.9962617,
        "meta_eccentricity": 0.00164702,
        "meta_inclination": 98.2228,
        "meta_ra_of_asc_node": 341.5148,
        "meta_arg_of_pericenter": 61.926,
        "meta_mean_anomaly": 298.3569,
        "meta_ephemeris_type": 0,
        "meta_classification_type": "U",
        "meta_norad_cat_id": 35931,
        "meta_element_set_no": 999,
        "meta_rev_at_epoch": 85234,
        "meta_bstar": -6.503688e-05,
        "meta_mean_motion_dot": -1.32e-06,
        "meta_mean_motion_ddot": 0,
        "tle_line1": "1 35931U 09051A   25340.25666323 -.00000132  00000+0 -65037-4 0  9995",
        "tle_line2": "2 35931  98.2228 341.5148 0016470  61.9260 298.3569 13.99626170852340"
      },
      "geometry": {
        "type": "Point",
        "coordinates": [
          168.7553654969733,
          39.171880511641874
        ]
      }
    },
    {
      "type": "Feature",
      "properties": {
        "norad_id": 35946,
        "name": "WORLDVIEW-2 (WV-2)",
        "group": "resource",
        "lat": 12.785200953686799,
        "lon": -126.10847487046033,
        "alt_km": 767.1489411817338,
        "timestamp": "2025-12-06T18:50:09.827571+00:00",
        "meta_object_name": "WORLDVIEW-2 (WV-2)",
        "meta_object_id": "2009-055A",
        "meta_epoch": "2025-12-06T06:22:12.106560",
        "meta_mean_motion": 14.37648341,
        "meta_eccentricity": 0.00054109,
        "meta_inclination": 98.4767,
        "meta_ra_of_asc_node": 51.4401,
        "meta_arg_of_pericenter": 82.4545,
        "meta_mean_anomaly": 277.7256,
        "meta_ephemeris_type": 0,
        "meta_classification_type": "U",
        "meta_norad_cat_id": 35946,
        "meta_element_set_no": 999,
        "meta_rev_at_epoch": 84792,
        "meta_bstar": 0.00015012337,
        "meta_mean_motion_dot": 4.07e-06,
        "meta_mean_motion_ddot": 0,
        "tle_line1": "1 35946U 09055A   25340.26541790  .00000407  00000+0  15012-3 0  9996",
        "tle_line2": "2 35946  98.4767  51.4401 0005410  82.4545 277.7256 14.37648341847920"
      },
      "geometry": {
        "type": "Point",
        "coordinates": [
          -126.10847487046033,
          12.785200953686799
        ]
      }
    }
  ]
}